[{"OBJECT_NAME":"ONEWEB-0321","OBJECT_ID":"2021-083F","EPOCH":"2025-08-04T14:43:08.717376","MEAN_MOTION":13.20771975,"ECCENTRICITY":0.0001913,"INCLINATION":87.9284,"RA_OF_ASC_NODE":337.5113,"ARG_OF_PERICENTER":88.8663,"MEAN_ANOMALY":271.269,"EPHEMERIS_TYPE":0,"CLASSIFICATION_TYPE":"U","NORAD_CAT_ID":49191,"ELEMENT_SET_NO":999,"REV_AT_EPOCH":19504,"BSTAR":-3.4285e-5,"MEAN_MOTION_DOT":-1.0e-8,"MEAN_MOTION_DDOT":0},{"OBJECT_NAME":"ONEWEB-0322","OBJECT_ID":"2021-083G","EPOCH":"2025-08-04T17:07:42.028032","MEAN_MOTION":13.13469378,"ECCENTRICITY":0.0001841,"INCLINATION":87.8975,"RA_OF_ASC_NODE":23.1306,"ARG_OF_PERICENTER":79.9272,"MEAN_ANOMALY":280.2065,"EPHEMERIS_TYPE":0,"CLASSIFICATION_TYPE":"U","NORAD_CAT_ID":49192,"ELEMENT_SET_NO":999,"REV_AT_EPOCH":18937,"BSTAR":-0.00047483,"MEAN_MOTION_DOT":-1.61e-6,"MEAN_MOTION_DDOT":0},{"OBJECT_NAME":"ONEWEB-0324","OBJECT_ID":"2021-083H","EPOCH":"2025-08-04T17:32:17.876544","MEAN_MOTION":13.18687003,"ECCENTRICITY":0.0001644,"INCLINATION":87.9127,"RA_OF_ASC_NODE":38.3062,"ARG_OF_PERICENTER":89.2484,"MEAN_ANOMALY":270.8836,"EPHEMERIS_TYPE":0,"CLASSIFICATION_TYPE":"U","NORAD_CAT_ID":49193,"ELEMENT_SET_NO":999,"REV_AT_EPOCH":18829,"BSTAR":0.00012462,"MEAN_MOTION_DOT":6.2e-7,"MEAN_MOTION_DDOT":0},{"OBJECT_NAME":"ONEWEB-0325","OBJECT_ID":"2021-083J","EPOCH":"2025-08-04T17:37:02.579232","MEAN_MOTION":13.18684911,"ECCENTRICITY":0.0001842,"INCLINATION":87.9131,"RA_OF_ASC_NODE":38.3227,"ARG_OF_PERICENTER":87.8126,"MEAN_ANOMALY":272.3217,"EPHEMERIS_TYPE":0,"CLASSIFICATION_TYPE":"U","NORAD_CAT_ID":49194,"ELEMENT_SET_NO":999,"REV_AT_EPOCH":18830,"BSTAR":2.6391e-5,"MEAN_MOTION_DOT":2.3e-7,"MEAN_MOTION_DDOT":0},{"OBJECT_NAME":"ONEWEB-0326","OBJECT_ID":"2021-083K","EPOCH":"2025-08-04T21:37:08.340672","MEAN_MOTION":13.18685429,"ECCENTRICITY":0.0001924,"INCLINATION":87.9126,"RA_OF_ASC_NODE":38.2785,"ARG_OF_PERICENTER":102.0837,"MEAN_ANOMALY":258.051,"EPHEMERIS_TYPE":0,"CLASSIFICATION_TYPE":"U","NORAD_CAT_ID":49195,"ELEMENT_SET_NO":999,"REV_AT_EPOCH":18831,"BSTAR":9.7849e-5,"MEAN_MOTION_DOT":5.1e-7,"MEAN_MOTION_DDOT":0},{"OBJECT_NAME":"ONEWEB-0327","OBJECT_ID":"2021-083L","EPOCH":"2025-08-04T17:58:13.425600","MEAN_MOTION":13.1868664,"ECCENTRICITY":0.0001912,"INCLINATION":87.9123,"RA_OF_ASC_NODE":38.3372,"ARG_OF_PERICENTER":99.4667,"MEAN_ANOMALY":260.6681,"EPHEMERIS_TYPE":0,"CLASSIFICATION_TYPE":"U","NORAD_CAT_ID":49196,"ELEMENT_SET_NO":999,"REV_AT_EPOCH":18831,"BSTAR":-8.1702e-6,"MEAN_MOTION_DOT":1.0e-7,"MEAN_MOTION_DDOT":0},{"OBJECT_NAME":"ONEWEB-0328","OBJECT_ID":"2021-083M","EPOCH":"2025-08-04T22:22:09.039648","MEAN_MOTION":13.13469408,"ECCENTRICITY":0.000163,"INCLINATION":87.8969,"RA_OF_ASC_NODE":23.0266,"ARG_OF_PERICENTER":93.0465,"MEAN_ANOMALY":267.085,"EPHEMERIS_TYPE":0,"CLASSIFICATION_TYPE":"U","NORAD_CAT_ID":49197,"ELEMENT_SET_NO":999,"REV_AT_EPOCH":18938,"BSTAR":0.00014806,"MEAN_MOTION_DOT":6.7e-7,"MEAN_MOTION_DDOT":0},{"OBJECT_NAME":"ONEWEB-0331","OBJECT_ID":"2021-083N","EPOCH":"2025-08-04T17:48:54.938592","MEAN_MOTION":13.18685926,"ECCENTRICITY":0.000168,"INCLINATION":87.9125,"RA_OF_ASC_NODE":38.3023,"ARG_OF_PERICENTER":101.5464,"MEAN_ANOMALY":258.5857,"EPHEMERIS_TYPE":0,"CLASSIFICATION_TYPE":"U","NORAD_CAT_ID":49198,"ELEMENT_SET_NO":999,"REV_AT_EPOCH":18830,"BSTAR":0.00041719,"MEAN_MOTION_DOT":1.77e-6,"MEAN_MOTION_DDOT":0},{"OBJECT_NAME":"ONEWEB-0333","OBJECT_ID":"2021-083P","EPOCH":"2025-08-04T22:14:50.606304","MEAN_MOTION":13.13469152,"ECCENTRICITY":0.0001838,"INCLINATION":87.8969,"RA_OF_ASC_NODE":23.0982,"ARG_OF_PERICENTER":91.8226,"MEAN_ANOMALY":268.3114,"EPHEMERIS_TYPE":0,"CLASSIFICATION_TYPE":"U","NORAD_CAT_ID":49199,"ELEMENT_SET_NO":999,"REV_AT_EPOCH":18939,"BSTAR":0.00051203,"MEAN_MOTION_DOT":2.0e-6,"MEAN_MOTION_DDOT":0},{"OBJECT_NAME":"ONEWEB-0334","OBJECT_ID":"2021-083Q","EPOCH":"2025-08-04T15:08:09.161376","MEAN_MOTION":13.20771648,"ECCENTRICITY":0.0002559,"INCLINATION":87.9285,"RA_OF_ASC_NODE":337.5412,"ARG_OF_PERICENTER":77.8532,"MEAN_ANOMALY":282.2887,"EPHEMERIS_TYPE":0,"CLASSIFICATION_TYPE":"U","NORAD_CAT_ID":49200,"ELEMENT_SET_NO":999,"REV_AT_EPOCH":19629,"BSTAR":-4.5263e-5,"MEAN_MOTION_DOT":-5.0e-8,"MEAN_MOTION_DDOT":0},{"OBJECT_NAME":"ONEWEB-0335","OBJECT_ID":"2021-083R","EPOCH":"2025-08-04T18:28:08.276736","MEAN_MOTION":13.13469799,"ECCENTRICITY":0.0001771,"INCLINATION":87.8967,"RA_OF_ASC_NODE":23.1167,"ARG_OF_PERICENTER":99.0757,"MEAN_ANOMALY":261.0573,"EPHEMERIS_TYPE":0,"CLASSIFICATION_TYPE":"U","NORAD_CAT_ID":49201,"ELEMENT_SET_NO":999,"REV_AT_EPOCH":18938,"BSTAR":0.00087533,"MEAN_MOTION_DOT":3.32e-6,"MEAN_MOTION_DDOT":0},{"OBJECT_NAME":"ONEWEB-0336","OBJECT_ID":"2021-083S","EPOCH":"2025-08-04T17:46:41.202624","MEAN_MOTION":13.13471688,"ECCENTRICITY":0.0001918,"INCLINATION":87.8962,"RA_OF_ASC_NODE":23.116,"ARG_OF_PERICENTER":94.5416,"MEAN_ANOMALY":265.5933,"EPHEMERIS_TYPE":0,"CLASSIFICATION_TYPE":"U","NORAD_CAT_ID":49202,"ELEMENT_SET_NO":999,"REV_AT_EPOCH":18937,"BSTAR":4.9909e-5,"MEAN_MOTION_DOT":3.1e-7,"MEAN_MOTION_DDOT":0},{"OBJECT_NAME":"ONEWEB-0337","OBJECT_ID":"2021-083T","EPOCH":"2025-08-04T21:40:29.237088","MEAN_MOTION":13.1346834,"ECCENTRICITY":0.000162,"INCLINATION":87.8973,"RA_OF_ASC_NODE":23.0837,"ARG_OF_PERICENTER":96.1709,"MEAN_ANOMALY":263.9604,"EPHEMERIS_TYPE":0,"CLASSIFICATION_TYPE":"U","NORAD_CAT_ID":49203,"ELEMENT_SET_NO":999,"REV_AT_EPOCH":18939,"BSTAR":-0.00054189,"MEAN_MOTION_DOT":-1.85e-6,"MEAN_MOTION_DDOT":0},{"OBJECT_NAME":"ONEWEB-0338","OBJECT_ID":"2021-083U","EPOCH":"2025-08-04T16:20:53.977056","MEAN_MOTION":13.20771597,"ECCENTRICITY":0.0002028,"INCLINATION":87.9297,"RA_OF_ASC_NODE":337.5257,"ARG_OF_PERICENTER":89.4948,"MEAN_ANOMALY":270.6417,"EPHEMERIS_TYPE":0,"CLASSIFICATION_TYPE":"U","NORAD_CAT_ID":49204,"ELEMENT_SET_NO":999,"REV_AT_EPOCH":19503,"BSTAR":0.00011711,"MEAN_MOTION_DOT":6.1e-7,"MEAN_MOTION_DDOT":0},{"OBJECT_NAME":"ONEWEB-0339","OBJECT_ID":"2021-083V","EPOCH":"2025-08-04T21:52:54.427584","MEAN_MOTION":13.13469439,"ECCENTRICITY":0.0001703,"INCLINATION":87.8968,"RA_OF_ASC_NODE":23.068,"ARG_OF_PERICENTER":89.392,"MEAN_ANOMALY":270.7404,"EPHEMERIS_TYPE":0,"CLASSIFICATION_TYPE":"U","NORAD_CAT_ID":49205,"ELEMENT_SET_NO":999,"REV_AT_EPOCH":18937,"BSTAR":0.00097307,"MEAN_MOTION_DOT":3.68e-6,"MEAN_MOTION_DDOT":0},{"OBJECT_NAME":"ONEWEB-0340","OBJECT_ID":"2021-083W","EPOCH":"2025-08-04T19:19:11.593920","MEAN_MOTION":13.18686054,"ECCENTRICITY":0.0001798,"INCLINATION":87.9127,"RA_OF_ASC_NODE":38.2938,"ARG_OF_PERICENTER":92.7167,"MEAN_ANOMALY":267.4171,"EPHEMERIS_TYPE":0,"CLASSIFICATION_TYPE":"U","NORAD_CAT_ID":49206,"ELEMENT_SET_NO":999,"REV_AT_EPOCH":18827,"BSTAR":2.4565e-5,"MEAN_MOTION_DOT":2.3e-7,"MEAN_MOTION_DDOT":0},{"OBJECT_NAME":"ONEWEB-0341","OBJECT_ID":"2021-083X","EPOCH":"2025-08-04T17:39:24.107616","MEAN_MOTION":13.18684825,"ECCENTRICITY":0.0001239,"INCLINATION":87.9131,"RA_OF_ASC_NODE":38.3188,"ARG_OF_PERICENTER":85.8477,"MEAN_ANOMALY":274.2797,"EPHEMERIS_TYPE":0,"CLASSIFICATION_TYPE":"U","NORAD_CAT_ID":49207,"ELEMENT_SET_NO":999,"REV_AT_EPOCH":18828,"BSTAR":0.00012081,"MEAN_MOTION_DOT":6.1e-7,"MEAN_MOTION_DDOT":0}]
