ONEWEB-0321             
1 49191U 21083F   25216.61329534 -.00000001  00000+0 -34285-4 0  9995
2 49191  87.9284 337.5113 0001913  88.8663 271.2690 13.20771975195048
ONEWEB-0322             
1 49192U 21083G   25216.71368088 -.00000161  00000+0 -47483-3 0  9994
2 49192  87.8975  23.1306 0001841  79.9272 280.2065 13.13469378189372
ONEWEB-0324             
1 49193U 21083H   25216.73076246  .00000062  00000+0  12462-3 0  9996
2 49193  87.9127  38.3062 0001644  89.2484 270.8836 13.18687003188293
ONEWEB-0325             
1 49194U 21083J   25216.73405763  .00000023  00000+0  26391-4 0  9991
2 49194  87.9131  38.3227 0001842  87.8126 272.3217 13.18684911188306
ONEWEB-0326             
1 49195U 21083K   25216.90079098  .00000051  00000+0  97849-4 0  9996
2 49195  87.9126  38.2785 0001924 102.0837 258.0510 13.18685429188312
ONEWEB-0327             
1 49196U 21083L   25216.74876650  .00000010  00000+0 -81702-5 0  9996
2 49196  87.9123  38.3372 0001912  99.4667 260.6681 13.18686640188314
ONEWEB-0328             
1 49197U 21083M   25216.93204907  .00000067  00000+0  14806-3 0  9998
2 49197  87.8969  23.0266 0001630  93.0465 267.0850 13.13469408189381
ONEWEB-0331             
1 49198U 21083N   25216.74230253  .00000177  00000+0  41719-3 0  9996
2 49198  87.9125  38.3023 0001680 101.5464 258.5857 13.18685926188309
ONEWEB-0333             
1 49199U 21083P   25216.92697461  .00000200  00000+0  51203-3 0  9991
2 49199  87.8969  23.0982 0001838  91.8226 268.3114 13.13469152189393
ONEWEB-0334             
1 49200U 21083Q   25216.63066159 -.00000005  00000+0 -45263-4 0  9991
2 49200  87.9285 337.5412 0002559  77.8532 282.2887 13.20771648196297
ONEWEB-0335             
1 49201U 21083R   25216.76954024  .00000332  00000+0  87533-3 0  9999
2 49201  87.8967  23.1167 0001771  99.0757 261.0573 13.13469799189381
ONEWEB-0336             
1 49202U 21083S   25216.74075466  .00000031  00000+0  49909-4 0  9994
2 49202  87.8962  23.1160 0001918  94.5416 265.5933 13.13471688189373
ONEWEB-0337             
1 49203U 21083T   25216.90311617 -.00000185  00000+0 -54189-3 0  9991
2 49203  87.8973  23.0837 0001620  96.1709 263.9604 13.13468340189399
ONEWEB-0338             
1 49204U 21083U   25216.68118029  .00000061  00000+0  11711-3 0  9994
2 49204  87.9297 337.5257 0002028  89.4948 270.6417 13.20771597195036
ONEWEB-0339             
1 49205U 21083V   25216.91174106  .00000368  00000+0  97307-3 0  9994
2 49205  87.8968  23.0680 0001703  89.3920 270.7404 13.13469439189374
ONEWEB-0340             
1 49206U 21083W   25216.80499530  .00000023  00000+0  24565-4 0  9999
2 49206  87.9127  38.2938 0001798  92.7167 267.4171 13.18686054188273
ONEWEB-0341             
1 49207U 21083X   25216.73569569  .00000061  00000+0  12081-3 0  9993
2 49207  87.9131  38.3188 0001239  85.8477 274.2797 13.18684825188289
